{"type": "FeatureCollection", "features": [ {"type": "Feature", "properties": {"norad_id": 41836, "name": "HIMAWARI-9", "group": "weather", "lat": 0.011219372975935994, "lon": 80.76706127450721, "alt_km": 35791.09763570884, "timestamp": "2025-12-27T13:34:48.932788+00:00", "meta": {"OBJECT_NAME": "HIMAWARI-9", "OBJECT_ID": "2016-064A", "EPOCH": "2025-12-27T06:49:10.839936", "MEAN_MOTION": 1.00267784, "ECCENTRICITY": 9.489e-05, "INCLINATION": 0.0135, "RA_OF_ASC_NODE": 82.1147, "ARG_OF_PERICENTER": 194.3858, "MEAN_ANOMALY": 62.5887, "EPHEMERIS_TYPE": 0, "CLASSIFICATION_TYPE": "U", "NORAD_CAT_ID": 41836, "ELEMENT_SET_NO": 999, "REV_AT_EPOCH": 3348, "BSTAR": 0, "MEAN_MOTION_DOT": -2.53e-06, "MEAN_MOTION_DDOT": 0}, "tle": {"line1": "1 41836U 16064A   25361.28415324 -.00000253  00000+0  00000+0 0  9994", "line2": "2 41836   0.0135  82.1147 0000948 194.3858  62.5887  1.00267784 33484"}}, "geometry": {"type": "Point", "coordinates": [80.76706127450721, 0.011219372975935994]}}, {"type": "Feature", "properties": {"norad_id": 41866, "name": "GOES 16", "group": "weather", "lat": 0.07655936459244232, "lon": -164.70605910767065, "alt_km": 35782.088111455116, "timestamp": "2025-12-27T13:34:48.932800+00:00", "meta": {"OBJECT_NAME": "GOES 16", "OBJECT_ID": "2016-071A", "EPOCH": "2025-12-27T05:39:25.020000", "MEAN_MOTION": 1.0027157, "ECCENTRICITY": 0.00032991, "INCLINATION": 0.081, "RA_OF_ASC_NODE": 100.589, "ARG_OF_PERICENTER": 167.8196, "MEAN_ANOMALY": 167.7541, "EPHEMERIS_TYPE": 0, "CLASSIFICATION_TYPE": "U", "NORAD_CAT_ID": 41866, "ELEMENT_SET_NO": 999, "REV_AT_EPOCH": 3337, "BSTAR": 0, "MEAN_MOTION_DOT": -6.9e-07, "MEAN_MOTION_DDOT": 0}, "tle": {"line1": "1 41866U 16071A   25361.23570625 -.00000069  00000+0  00000+0 0  9991", "line2": "2 41866   0.0810 100.5890 0003299 167.8196 167.7541  1.00271570 33370"}}, "geometry": {"type": "Point", "coordinates": [-164.70605910767065, 0.07655936459244232]}}, {"type": "Feature", "properties": {"norad_id": 41882, "name": "FENGYUN 4A", "group": "weather", "lat": -0.5890901223599281, "lon": 63.57562795568036, "alt_km": 35804.25458912427, "timestamp": "2025-12-27T13:34:48.932812+00:00", "meta": {"OBJECT_NAME": "FENGYUN 4A", "OBJECT_ID": "2016-077A", "EPOCH": "2025-12-27T06:44:33.781920", "MEAN_MOTION": 1.00279525, "ECCENTRICITY": 0.0005407, "INCLINATION": 1.8837, "RA_OF_ASC_NODE": 82.2628, "ARG_OF_PERICENTER": 133.7835, "MEAN_ANOMALY": 104.7029, "EPHEMERIS_TYPE": 0, "CLASSIFICATION_TYPE": "U", "NORAD_CAT_ID": 41882, "ELEMENT_SET_NO": 999, "REV_AT_EPOCH": 3320, "BSTAR": 0, "MEAN_MOTION_DOT": -3.35e-06, "MEAN_MOTION_DDOT": 0}, "tle": {"line1": "1 41882U 16077A   25361.28094655 -.00000335  00000+0  00000+0 0  9990", "line2": "2 41882   1.8837  82.2628 0005407 133.7835 104.7029  1.00279525 33208"}}, "geometry": {"type": "Point", "coordinates": [63.57562795568036, -0.5890901223599281]}}, {"type": "Feature", "properties": {"norad_id": 41884, "name": "CYGFM05", "group": "weather", "lat": -21.756657763129894, "lon": -84.58999775294718, "alt_km": 416.2699394991423, "timestamp": "2025-12-27T13:34:48.932823+00:00", "meta": {"OBJECT_NAME": "CYGFM05", "OBJECT_ID": "2016-078A", "EPOCH": "2025-12-27T06:00:55.835136", "MEAN_MOTION": 15.48197192, "ECCENTRICITY": 0.00102905, "INCLINATION": 34.9601, "RA_OF_ASC_NODE": 312.3059, "ARG_OF_PERICENTER": 307.7355, "MEAN_ANOMALY": 52.2433, "EPHEMERIS_TYPE": 0, "CLASSIFICATION_TYPE": "U", "NORAD_CAT_ID": 41884, "ELEMENT_SET_NO": 999, "REV_AT_EPOCH": 50201, "BSTAR": 0.00041710382, "MEAN_MOTION_DOT": 0.00022691, "MEAN_MOTION_DDOT": 0}, "tle": {"line1": "1 41884U 16078A   25361.25064624  .00022691  00000+0  41710-3 0  9998", "line2": "2 41884  34.9601 312.3059 0010290 307.7355  52.2433 15.48197192502019"}}, "geometry": {"type": "Point", "coordinates": [-84.58999775294718, -21.756657763129894]}}, {"type": "Feature", "properties": {"norad_id": 41885, "name": "CYGFM04", "group": "weather", "lat": -7.3275132977169894, "lon": -86.02830830546182, "alt_km": 407.70762304434993, "timestamp": "2025-12-27T13:34:48.932834+00:00", "meta": {"OBJECT_NAME": "CYGFM04", "OBJECT_ID": "2016-078B", "EPOCH": "2025-12-27T04:22:00.452352", "MEAN_MOTION": 15.50997667, "ECCENTRICITY": 0.00087783, "INCLINATION": 34.9347, "RA_OF_ASC_NODE": 287.1088, "ARG_OF_PERICENTER": 332.0064, "MEAN_ANOMALY": 28.0186, "EPHEMERIS_TYPE": 0, "CLASSIFICATION_TYPE": "U", "NORAD_CAT_ID": 41885, "ELEMENT_SET_NO": 999, "REV_AT_EPOCH": 50218, "BSTAR": 0.00042228229, "MEAN_MOTION_DOT": 0.00025367, "MEAN_MOTION_DDOT": 0}, "tle": {"line1": "1 41885U 16078B   25361.18194968  .00025367  00000+0  42228-3 0  9994", "line2": "2 41885  34.9347 287.1088 0008778 332.0064  28.0186 15.50997667502186"}}, "geometry": {"type": "Point", "coordinates": [-86.02830830546182, -7.3275132977169894]}}, {"type": "Feature", "properties": {"norad_id": 41886, "name": "CYGFM02", "group": "weather", "lat": 33.6407945068154, "lon": -4.915481192916964, "alt_km": 404.2950587864152, "timestamp": "2025-12-27T13:34:48.932844+00:00", "meta": {"OBJECT_NAME": "CYGFM02", "OBJECT_ID": "2016-078C", "EPOCH": "2025-12-27T05:32:27.052224", "MEAN_MOTION": 15.52425809, "ECCENTRICITY": 0.00103437, "INCLINATION": 34.9434, "RA_OF_ASC_NODE": 284.9233, "ARG_OF_PERICENTER": 334.4073, "MEAN_ANOMALY": 25.6137, "EPHEMERIS_TYPE": 0, "CLASSIFICATION_TYPE": "U", "NORAD_CAT_ID": 41886, "ELEMENT_SET_NO": 999, "REV_AT_EPOCH": 50232, "BSTAR": 0.0004287551, "MEAN_MOTION_DOT": 0.0002714, "MEAN_MOTION_DDOT": 0}, "tle": {"line1": "1 41886U 16078C   25361.23086866  .00027140  00000+0  42876-3 0  9998", "line2": "2 41886  34.9434 284.9233 0010343 334.4073  25.6137 15.52425809502329"}}, "geometry": {"type": "Point", "coordinates": [-4.915481192916964, 33.6407945068154]}}, {"type": "Feature", "properties": {"norad_id": 41887, "name": "CYGFM01", "group": "weather", "lat": 19.43709471006479, "lon": -17.153321749750425, "alt_km": 416.5518484265858, "timestamp": "2025-12-27T13:34:48.932855+00:00", "meta": {"OBJECT_NAME": "CYGFM01", "OBJECT_ID": "2016-078D", "EPOCH": "2025-12-27T05:41:34.078272", "MEAN_MOTION": 15.48792617, "ECCENTRICITY": 0.00100848, "INCLINATION": 34.9433, "RA_OF_ASC_NODE": 314.6401, "ARG_OF_PERICENTER": 299.9783, "MEAN_ANOMALY": 59.9938, "EPHEMERIS_TYPE": 0, "CLASSIFICATION_TYPE": "U", "NORAD_CAT_ID": 41887, "ELEMENT_SET_NO": 999, "REV_AT_EPOCH": 50195, "BSTAR": 0.00040972641, "MEAN_MOTION_DOT": 0.0002276, "MEAN_MOTION_DDOT": 0}, "tle": {"line1": "1 41887U 16078D   25361.23719998  .00022760  00000+0  40973-3 0  9997", "line2": "2 41887  34.9433 314.6401 0010084 299.9783  59.9938 15.48792617501958"}}, "geometry": {"type": "Point", "coordinates": [-17.153321749750425, 19.43709471006479]}}, {"type": "Feature", "properties": {"norad_id": 41888, "name": "CYGFM08", "group": "weather", "lat": 16.85899471091307, "lon": 89.58527483318116, "alt_km": 420.58308248233425, "timestamp": "2025-12-27T13:34:48.932866+00:00", "meta": {"OBJECT_NAME": "CYGFM08", "OBJECT_ID": "2016-078E", "EPOCH": "2025-12-27T05:12:34.738272", "MEAN_MOTION": 15.50037263, "ECCENTRICITY": 0.00111588, "INCLINATION": 34.9459, "RA_OF_ASC_NODE": 297.5919, "ARG_OF_PERICENTER": 323.738, "MEAN_ANOMALY": 36.2585, "EPHEMERIS_TYPE": 0, "CLASSIFICATION_TYPE": "U", "NORAD_CAT_ID": 41888, "ELEMENT_SET_NO": 999, "REV_AT_EPOCH": 50218, "BSTAR": 0.0004269891, "MEAN_MOTION_DOT": 0.00024808, "MEAN_MOTION_DDOT": 0}, "tle": {"line1": "1 41888U 16078E   25361.21706873  .00024808  00000+0  42699-3 0  9996", "line2": "2 41888  34.9459 297.5919 0011158 323.7380  36.2585 15.50037263502186"}}, "geometry": {"type": "Point", "coordinates": [89.58527483318116, 16.85899471091307]}}, {"type": "Feature", "properties": {"norad_id": 41890, "name": "CYGFM07", "group": "weather", "lat": 6.339691898183104, "lon": 95.04756887545378, "alt_km": 418.88151068030857, "timestamp": "2025-12-27T13:34:48.932877+00:00", "meta": {"OBJECT_NAME": "CYGFM07", "OBJECT_ID": "2016-078G", "EPOCH": "2025-12-27T05:07:48.574560", "MEAN_MOTION": 15.50634821, "ECCENTRICITY": 0.00089603, "INCLINATION": 34.9473, "RA_OF_ASC_NODE": 286.5126, "ARG_OF_PERICENTER": 338.6646, "MEAN_ANOMALY": 21.3702, "EPHEMERIS_TYPE": 0, "CLASSIFICATION_TYPE": "U", "NORAD_CAT_ID": 41890, "ELEMENT_SET_NO": 999, "REV_AT_EPOCH": 50220, "BSTAR": 0.00041585653, "MEAN_MOTION_DOT": 0.00024657, "MEAN_MOTION_DDOT": 0}, "tle": {"line1": "1 41890U 16078G   25361.21375665  .00024657  00000+0  41586-3 0  9996", "line2": "2 41890  34.9473 286.5126 0008960 338.6646  21.3702 15.50634821502202"}}, "geometry": {"type": "Point", "coordinates": [95.04756887545378, 6.339691898183104]}}, {"type": "Feature", "properties": {"norad_id": 41891, "name": "CYGFM03", "group": "weather", "lat": -1.1587605062093023, "lon": -75.5303350704541, "alt_km": 408.9448609760466, "timestamp": "2025-12-27T13:34:48.932887+00:00", "meta": {"OBJECT_NAME": "CYGFM03", "OBJECT_ID": "2016-078H", "EPOCH": "2025-12-27T04:19:02.955648", "MEAN_MOTION": 15.50526979, "ECCENTRICITY": 0.00088568, "INCLINATION": 34.9429, "RA_OF_ASC_NODE": 288.6623, "ARG_OF_PERICENTER": 324.6676, "MEAN_ANOMALY": 35.3458, "EPHEMERIS_TYPE": 0, "CLASSIFICATION_TYPE": "U", "NORAD_CAT_ID": 41891, "ELEMENT_SET_NO": 999, "REV_AT_EPOCH": 50217, "BSTAR": 0.00045232571, "MEAN_MOTION_DOT": 0.00026727, "MEAN_MOTION_DDOT": 0}, "tle": {"line1": "1 41891U 16078H   25361.17989532  .00026727  00000+0  45233-3 0  9999", "line2": "2 41891  34.9429 288.6623 0008856 324.6676  35.3458 15.50526979502174"}}, "geometry": {"type": "Point", "coordinates": [-75.5303350704541, -1.1587605062093023]}}]}